NORAD_CAT_ID,OBJECT_NAME,OBJECT_TYPE,EPOCH,MEAN_MOTION,ECCENTRICITY,INCLINATION,RA_OF_ASC_NODE,ARG_OF_PERICENTER,MEAN_ANOMALY,BSTAR,MEAN_MOTION_DOT,MEAN_MOTION_DDOT,TLE_LINE0,TLE_LINE1,TLE_LINE2,SEMIMAJOR_AXIS,PERIOD,APOGEE,PERIGEE,DECAYED
54811.0,STARLINK-5424,PAYLOAD,2023-12-05 13:40:45,15.0885482,0.0001229,53.2166,128.2708,74.7839,285.3288,0.00017699,2.531e-05,0.0,0 STARLINK-5424,1 54811U 22175BF  23339.56996760  .00002531  00000-0  17699-3 0  9990,2 54811  53.2166 128.2708 0001229  74.7839 285.3288 15.08854820 55630,6917.835,95.437,540.55,538.85,0.0
54811.0,STARLINK-5424,PAYLOAD,2023-12-05 20:02:17,15.08854302,0.000158,53.2169,127.0734,113.125,246.9909,0.00027157,4.038e-05,0.0,0 STARLINK-5424,1 54811U 22175BF  23339.83492563  .00004038  00000-0  27157-3 0  9996,2 54811  53.2169 127.0734 0001580 113.1250 246.9909 15.08854302 55676,6917.837,95.437,540.795,538.609,0.0
54811.0,STARLINK-5424,PAYLOAD,2023-12-06 10:20:47,15.08828902,7.21e-05,53.2181,124.4057,34.7878,325.3161,-5.3063e-05,-1.132e-05,0.0,0 STARLINK-5424,1 54811U 22175BF  23340.43111081 -.00001132  00000-0 -53063-4 0  9997,2 54811  53.2181 124.4057 0000721  34.7878 325.3161 15.08828902 53609,6917.914,95.438,540.278,539.281,0.0
54811.0,STARLINK-5424,PAYLOAD,2023-12-06 13:31:34,15.08834182,0.0001293,53.2198,123.8099,95.5072,264.6068,-0.00013265,-2.398e-05,0.0,0 STARLINK-5424,1 54811U 22175BF  23340.56358890 -.00002398  00000-0 -13265-3 0  9996,2 54811  53.2198 123.8099 0001293  95.5072 264.6068 15.08834182 55781,6917.898,95.438,540.658,538.869,0.0
54811.0,STARLINK-5424,PAYLOAD,2023-12-07 10:11:34,15.08846923,0.0001292,53.219,119.9416,96.1753,263.9387,-0.00017516,-3.075e-05,0.0,0 STARLINK-5424,1 54811U 22175BF  23341.42470135 -.00003075  00000-0 -17516-3 0  9995,2 54811  53.2190 119.9416 0001292  96.1753 263.9387 15.08846923 53751,6917.859,95.437,540.618,538.83,0.0
54811.0,STARLINK-5424,PAYLOAD,2023-12-07 13:22:20,15.08849167,0.0001491,53.2182,119.3477,112.3318,247.7832,-0.00015548,-2.762e-05,0.0,0 STARLINK-5424,1 54811U 22175BF  23341.55717858 -.00002762  00000-0 -15548-3 0  9990,2 54811  53.2182 119.3477 0001491 112.3318 247.7832 15.08849167 55932,6917.852,95.437,540.749,538.686,0.0
54811.0,STARLINK-5424,PAYLOAD,2023-12-07 19:43:52,15.08849911,0.000143,53.2181,118.1579,107.2765,252.8384,-0.000123,-2.246e-05,0.0,0 STARLINK-5424,1 54811U 22175BF  23341.82213576 -.00002246  00000-0 -12300-3 0  9998,2 54811  53.2181 118.1579 0001430 107.2765 252.8384 15.08849911 53814,6917.85,95.437,540.704,538.726,0.0
54811.0,STARLINK-5424,PAYLOAD,2023-12-08 13:13:07,15.08834949,0.000147,53.2179,114.8872,105.1439,254.9715,0.00016359,2.316e-05,0.0,0 STARLINK-5424,1 54811U 22175BF  23342.55077872  .00002316  00000-0  16359-3 0  9990,2 54811  53.2179 114.8872 0001470 105.1439 254.9715 15.08834949 56087,6917.896,95.438,540.778,538.744,0.0
54811.0,STARLINK-5424,PAYLOAD,2023-12-08 17:59:16,15.08837146,0.0001514,53.218,113.9951,106.5841,253.5317,0.00017309,2.468e-05,0.0,0 STARLINK-5424,1 54811U 22175BF  23342.74949792  .00002468  00000-0  17309-3 0  9994,2 54811  53.2180 113.9951 0001514 106.5841 253.5317 15.08837146 53956,6917.889,95.438,540.801,538.707,0.0
54811.0,STARLINK-5424,PAYLOAD,2023-12-09 13:03:54,15.08838747,0.0001661,53.2193,110.4282,109.0882,251.0291,5.1301e-05,5.28e-06,0.0,0 STARLINK-5424,1 54811U 22175BF  23343.54438198  .00000528  00000-0  51301-4 0  9992,2 54811  53.2193 110.4282 0001661 109.0882 251.0291 15.08838747 56231,6917.884,95.438,540.898,538.6,0.0
54811.0,STARLINK-5424,PAYLOAD,2023-12-09 17:50:03,15.08840245,0.0001669,53.2191,109.536,109.0594,251.0579,6.1236e-05,6.87e-06,0.0,0 STARLINK-5424,1 54811U 22175BF  23343.74310074  .00000687  00000-0  61236-4 0  9990,2 54811  53.2191 109.5360 0001669 109.0594 251.0579 15.08840245 56261,6917.88,95.438,540.899,538.59,0.0
54811.0,STARLINK-5424,PAYLOAD,2023-12-10 08:08:32,15.08841083,0.0001714,53.2186,106.8598,106.8311,253.287,3.4612e-05,2.63e-06,0.0,0 STARLINK-5424,1 54811U 22175BF  23344.33926115  .00000263  00000-0  34612-4 0  9993,2 54811  53.2186 106.8598 0001714 106.8311 253.2870 15.08841083 54190,6917.877,95.437,540.928,538.556,0.0
54811.0,STARLINK-5424,PAYLOAD,2023-12-10 14:30:04,15.08841332,0.0001753,53.2191,105.6702,113.8822,246.2354,5.0286e-05,5.12e-06,0.0,0 STARLINK-5424,1 54811U 22175BF  23344.60421975  .00000512  00000-0  50286-4 0  9999,2 54811  53.2191 105.6702 0001753 113.8822 246.2354 15.08841332 56398,6917.876,95.437,540.954,538.529,0.0
54811.0,STARLINK-5424,PAYLOAD,2023-12-11 14:20:51,15.08841065,0.0001569,53.2184,101.21,109.0585,251.0577,5.5133e-05,5.9e-06,0.0,0 STARLINK-5424,1 54811U 22175BF  23345.59781972  .00000590  00000-0  55133-4 0  9996,2 54811  53.2184 101.2100 0001569 109.0585 251.0577 15.08841065 56543,6917.877,95.437,540.828,538.657,0.0
54811.0,STARLINK-5424,PAYLOAD,2023-12-12 14:11:38,15.08841311,0.0001402,53.2179,96.7497,98.963,261.1521,4.8097e-05,4.78e-06,0.0,0 STARLINK-5424,1 54811U 22175BF  23346.59142018  .00000478  00000-0  48097-4 0  9995,2 54811  53.2179  96.7497 0001402  98.9630 261.1521 15.08841311 56698,6917.876,95.437,540.711,538.771,0.0
54811.0,STARLINK-5424,PAYLOAD,2023-12-13 10:51:39,15.08839324,0.0001385,53.2178,92.8827,99.9707,260.1442,4.9191e-05,4.95e-06,0.0,0 STARLINK-5424,1 54811U 22175BF  23347.45254077  .00000495  00000-0  49191-4 0  9995,2 54811  53.2178  92.8827 0001385  99.9707 260.1442 15.08839324 54664,6917.882,95.438,540.706,538.789,0.0
54811.0,STARLINK-5424,PAYLOAD,2023-12-13 12:27:02,15.08840164,0.0001387,53.2178,92.5854,97.8969,262.2181,5.4945e-05,5.87e-06,0.0,0 STARLINK-5424,1 54811U 22175BF  23347.51878023  .00000587  00000-0  54945-4 0  9990,2 54811  53.2178  92.5854 0001387  97.8969 262.2181 15.08840164 56838,6917.88,95.438,540.704,538.785,0.0
54811.0,STARLINK-5424,PAYLOAD,2023-12-14 12:17:49,15.0883972,0.0001369,53.2179,88.1261,92.5977,267.5171,3.8922e-05,3.32e-06,0.0,0 STARLINK-5424,1 54811U 22175BF  23348.51238231  .00000332  00000-0  38922-4 0  9997,2 54811  53.2179  88.1261 0001369  92.5977 267.5171 15.08839720 54823,6917.881,95.438,540.693,538.799,0.0
54811.0,STARLINK-5424,PAYLOAD,2023-12-15 12:08:37,15.08835897,0.0001301,53.2175,83.6667,82.0922,278.0218,2.502e-05,1.1e-06,0.0,0 STARLINK-5424,1 54811U 22175BF  23349.50598759  .00000110  00000-0  25020-4 0  9990,2 54811  53.2175  83.6667 0001301  82.0922 278.0218 15.08835897 57136,6917.893,95.438,540.658,538.858,0.0
54811.0,STARLINK-5424,PAYLOAD,2023-12-16 13:34:47,15.08841305,0.0001328,53.2175,78.9096,77.7499,282.3642,9.8809e-05,1.285e-05,0.0,0 STARLINK-5424,1 54811U 22175BF  23350.56582548  .00001285  00000-0  98809-4 0  9996,2 54811  53.2175  78.9096 0001328  77.7499 282.3642 15.08841305 57295,6917.876,95.437,540.66,538.823,0.0
54811.0,STARLINK-5424,PAYLOAD,2023-12-17 11:50:11,15.08836361,0.0001311,53.2177,74.7461,76.2092,283.9046,4.6825e-05,4.57e-06,0.0,0 STARLINK-5424,1 54811U 22175BF  23351.49319288  .00000457  00000-0  46825-4 0  9999,2 54811  53.2177  74.7461 0001311  76.2092 283.9046 15.08836361 55279,6917.892,95.438,540.663,538.85,0.0
54811.0,STARLINK-5424,PAYLOAD,2023-12-17 13:25:34,15.08838999,0.0001362,53.2183,74.447,78.173,281.9415,6.1214e-05,6.86e-06,0.0,0 STARLINK-5424,1 54811U 22175BF  23351.55943104  .00000686  00000-0  61214-4 0  9999,2 54811  53.2183  74.4470 0001362  78.1730 281.9415 15.08838999 57447,6917.883,95.438,540.691,538.806,0.0
54811.0,STARLINK-5424,PAYLOAD,2023-12-18 11:40:57,15.08857643,0.0001315,53.2174,70.2851,87.3974,272.7168,0.00017121,2.439e-05,0.0,0 STARLINK-5424,1 54811U 22175BF  23352.48677490  .00002439  00000-0  17121-3 0  9999,2 54811  53.2174  70.2851 0001315  87.3974 272.7168 15.08857643 55420,6917.826,95.436,540.601,538.782,0.0
54811.0,STARLINK-5424,PAYLOAD,2023-12-19 11:31:45,15.08845296,0.000131,53.2173,65.8222,89.9603,270.1539,7.6056e-05,9.23e-06,0.0,0 STARLINK-5424,1 54811U 22175BF  23353.48038318  .00000923  00000-0  76056-4 0  9999,2 54811  53.2173  65.8222 0001310  89.9603 270.1539 15.08845296 55574,6917.864,95.437,540.635,538.823,0.0
54811.0,STARLINK-5424,PAYLOAD,2023-12-20 11:22:32,15.08835756,0.0001626,53.2184,61.3614,87.303,272.8148,-0.00018449,-3.223e-05,0.0,0 STARLINK-5424,1 54811U 22175BF  23354.47399022 -.00003223  00000-0 -18449-3 0  9990,2 54811  53.2184  61.3614 0001626  87.3030 272.8148 15.08835756 55720,6917.893,95.438,540.883,538.634,0.0
54811.0,STARLINK-5424,PAYLOAD,2023-12-21 11:13:19,15.08850303,0.0001558,53.2183,56.9047,90.5828,269.5343,0.0003183,4.783e-05,0.0,0 STARLINK-5424,1 54811U 22175BF  23355.46758843  .00004783  00000-0  31830-3 0  9999,2 54811  53.2183  56.9047 0001558  90.5828 269.5343 15.08850303 55875,6917.849,95.437,540.792,538.636,0.0
54811.0,STARLINK-5424,PAYLOAD,2023-12-22 11:04:07,15.08844584,0.0001583,53.2182,52.4461,92.8072,267.3101,0.00019744,2.856e-05,0.0,0 STARLINK-5424,1 54811U 22175BF  23356.46119420  .00002856  00000-0  19744-3 0  9991,2 54811  53.2182  52.4461 0001583  92.8072 267.3101 15.08844584 56029,6917.866,95.437,540.826,538.636,0.0
54811.0,STARLINK-5424,PAYLOAD,2023-12-23 10:54:54,15.08840938,0.0001721,53.2185,47.9826,77.778,282.3405,3.3544e-05,2.46e-06,0.0,0 STARLINK-5424,1 54811U 22175BF  23357.45479482  .00000246  00000-0  33544-4 0  9994,2 54811  53.2185  47.9826 0001721  77.7780 282.3405 15.08840938 56177,6917.878,95.437,540.933,538.552,0.0
54811.0,STARLINK-5424,PAYLOAD,2023-12-23 12:30:17,15.08843978,0.0001659,53.2184,47.6851,88.6529,271.4654,0.00010292,1.35e-05,0.0,0 STARLINK-5424,1 54811U 22175BF  23357.52103327  .00001350  00000-0  10292-3 0  9995,2 54811  53.2184  47.6851 0001659  88.6529 271.4654 15.08843978 58346,6917.868,95.437,540.881,538.586,0.0
54811.0,STARLINK-5424,PAYLOAD,2023-12-24 10:45:41,15.08844601,0.0001728,53.2181,43.525,76.2188,283.8996,0.0002055,2.984e-05,0.0,0 STARLINK-5424,1 54811U 22175BF  23358.44839713  .00002984  00000-0  20550-3 0  9994,2 54811  53.2181  43.5250 0001728  76.2188 283.8996 15.08844601 58487,6917.866,95.437,540.927,538.536,0.0
